start=new Date('2022-12-31T00:00:00.000Z').valueOf();
sats=[{"MEAN_ELEMENT_THEORY":"SGP4","ECCENTRICITY":"0.00014760","SEMIMAJOR_AXIS":"6925.333","GP_ID":"221783783","OBJECT_ID":"2020-055S","REV_AT_EPOCH":"13323","MEAN_ANOMALY":"284.4948","ELEMENT_SET_NO":"999","TIME_SYSTEM":"UTC","MEAN_MOTION":"15.06405151","EPOCH":"2022-12-30T07:24:24.850944","RCS_SIZE":"LARGE","CLASSIFICATION_TYPE":"U","TLE_LINE2":"2 46043  53.0547 318.2166 0001476  75.6204 284.4948 15.06405151133231","INCLINATION":"53.0547","COUNTRY_CODE":"US","TLE_LINE1":"1 46043U 20055S   22364.30862096  .00005593  00000-0  39405-3 0  9996","SITE":"AFETR","REF_FRAME":"TEME","APOAPSIS":"548.220","PERIOD":"95.592","MEAN_MOTION_DDOT":"0.0000000000000","NORAD_CAT_ID":"46043","LAUNCH_DATE":"2020-08-07","MEAN_MOTION_DOT":"0.00005593","OBJECT_TYPE":"PAYLOAD","CENTER_NAME":"EARTH","EPHEMERIS_TYPE":"0","ARG_OF_PERICENTER":"75.6204","PERIAPSIS":"546.176","FILE":"3726810","DECAY_DATE":null,"RA_OF_ASC_NODE":"318.2166","BSTAR":"0.00039405000000","OBJECT_NAME":"STARLINK-1582"},{"SEMIMAJOR_AXIS":"6925.349","ECCENTRICITY":"0.00017260","MEAN_ELEMENT_THEORY":"SGP4","OBJECT_ID":"2020-055T","GP_ID":"221793689","MEAN_ANOMALY":"302.5077","REV_AT_EPOCH":"13277","ELEMENT_SET_NO":"999","MEAN_MOTION":"15.06399935","TIME_SYSTEM":"UTC","CLASSIFICATION_TYPE":"U","RCS_SIZE":"LARGE","EPOCH":"2022-12-30T14:06:25.929504","INCLINATION":"53.0559","TLE_LINE2":"2 46044  53.0559 316.9590 0001726  57.6079 302.5077 15.06399935132774","SITE":"AFETR","TLE_LINE1":"1 46044U 20055T   22364.58780011  .00001527  00000-0  12140-3 0  9993","COUNTRY_CODE":"US","APOAPSIS":"548.409","REF_FRAME":"TEME","MEAN_MOTION_DDOT":"0.0000000000000","PERIOD":"95.592","NORAD_CAT_ID":"46044","LAUNCH_DATE":"2020-08-07","CENTER_NAME":"EARTH","OBJECT_TYPE":"PAYLOAD","MEAN_MOTION_DOT":"0.00001527","EPHEMERIS_TYPE":"0","DECAY_DATE":null,"FILE":"3726979","ARG_OF_PERICENTER":"57.6079","PERIAPSIS":"546.018","OBJECT_NAME":"STARLINK-1584","BSTAR":"0.00012140000000","RA_OF_ASC_NODE":"316.9590"},{"TIME_SYSTEM":"UTC","MEAN_MOTION":"15.06398969","RCS_SIZE":"LARGE","EPOCH":"2022-12-30T09:37:06.324960","CLASSIFICATION_TYPE":"U","INCLINATION":"53.0545","TLE_LINE2":"2 46045  53.0545 317.8152 0002064  41.7328 318.3818 15.06398969133237","COUNTRY_CODE":"US","SITE":"AFETR","TLE_LINE1":"1 46045U 20055U   22364.40076765  .00000154  00000-0  29283-4 0  9991","MEAN_ELEMENT_THEORY":"SGP4","SEMIMAJOR_AXIS":"6925.352","ECCENTRICITY":"0.00020640","OBJECT_ID":"2020-055U","GP_ID":"221784783","MEAN_ANOMALY":"318.3818","REV_AT_EPOCH":"13323","ELEMENT_SET_NO":"999","OBJECT_TYPE":"PAYLOAD","MEAN_MOTION_DOT":"0.00000154","CENTER_NAME":"EARTH","EPHEMERIS_TYPE":"0","FILE":"3726810","PERIAPSIS":"545.787","ARG_OF_PERICENTER":"41.7328","DECAY_DATE":null,"RA_OF_ASC_NODE":"317.8152","OBJECT_NAME":"STARLINK-1591","BSTAR":"0.00002928300000","REF_FRAME":"TEME","APOAPSIS":"548.646","PERIOD":"95.592","MEAN_MOTION_DDOT":"0.0000000000000","NORAD_CAT_ID":"46045","LAUNCH_DATE":"2020-08-07"},{"MEAN_ANOMALY":"313.4420","REV_AT_EPOCH":"13291","ELEMENT_SET_NO":"999","SEMIMAJOR_AXIS":"6925.358","ECCENTRICITY":"0.00017260","MEAN_ELEMENT_THEORY":"SGP4","OBJECT_ID":"2020-055W","GP_ID":"221793135","INCLINATION":"53.0569","TLE_LINE2":"2 46047  53.0569 306.8165 0001726  46.6713 313.4420 15.06396889132911","TLE_LINE1":"1 46047U 20055W   22364.61915860  .00002214  00000-0  16747-3 0  9993","SITE":"AFETR","COUNTRY_CODE":"US","MEAN_MOTION":"15.06396889","TIME_SYSTEM":"UTC","CLASSIFICATION_TYPE":"U","RCS_SIZE":"LARGE","EPOCH":"2022-12-30T14:51:35.303040","NORAD_CAT_ID":"46047","LAUNCH_DATE":"2020-08-07","APOAPSIS":"548.418","REF_FRAME":"TEME","MEAN_MOTION_DDOT":"0.0000000000000","PERIOD":"95.592","DECAY_DATE":null,"FILE":"3726958","ARG_OF_PERICENTER":"46.6713","PERIAPSIS":"546.028","OBJECT_NAME":"STARLINK-1524","BSTAR":"0.00016747000000","RA_OF_ASC_NODE":"306.8165","CENTER_NAME":"EARTH","OBJECT_TYPE":"PAYLOAD","MEAN_MOTION_DOT":"0.00002214","EPHEMERIS_TYPE":"0"},{"LAUNCH_DATE":"2020-08-07","NORAD_CAT_ID":"46048","PERIOD":"95.592","MEAN_MOTION_DDOT":"0.0000000000000","REF_FRAME":"TEME","APOAPSIS":"548.454","RA_OF_ASC_NODE":"307.1463","BSTAR":"0.00038777000000","OBJECT_NAME":"STARLINK-1527","ARG_OF_PERICENTER":"57.2469","PERIAPSIS":"545.928","FILE":"3726959","DECAY_DATE":null,"EPHEMERIS_TYPE":"0","MEAN_MOTION_DOT":"0.00005500","OBJECT_TYPE":"PAYLOAD","CENTER_NAME":"EARTH","ELEMENT_SET_NO":"999","MEAN_ANOMALY":"302.8696","REV_AT_EPOCH":"13290","GP_ID":"221793469","OBJECT_ID":"2020-055X","MEAN_ELEMENT_THEORY":"SGP4","ECCENTRICITY":"0.00018240","SEMIMAJOR_AXIS":"6925.326","COUNTRY_CODE":"US","SITE":"AFETR","TLE_LINE1":"1 46048U 20055X   22364.54912466  .00005500  00000-0  38777-3 0  9993","TLE_LINE2":"2 46048  53.0546 307.1463 0001824  57.2469 302.8696 15.06407402132907","INCLINATION":"53.0546","EPOCH":"2022-12-30T13:10:44.370624","RCS_SIZE":"LARGE","CLASSIFICATION_TYPE":"U","TIME_SYSTEM":"UTC","MEAN_MOTION":"15.06407402"},{"BSTAR":"0.00028796000000","OBJECT_NAME":"STARLINK-1530","RA_OF_ASC_NODE":"306.5627","DECAY_DATE":null,"PERIAPSIS":"545.783","ARG_OF_PERICENTER":"49.2883","FILE":"3726963","EPHEMERIS_TYPE":"0","CENTER_NAME":"EARTH","MEAN_MOTION_DOT":"0.00004011","OBJECT_TYPE":"PAYLOAD","LAUNCH_DATE":"2020-08-07","NORAD_CAT_ID":"46049","MEAN_MOTION_DDOT":"0.0000000000000","PERIOD":"95.592","APOAPSIS":"548.585","REF_FRAME":"TEME","TLE_LINE1":"1 46049U 20055Y   22364.67811663  .00004011  00000-0  28796-3 0  9991","SITE":"AFETR","COUNTRY_CODE":"US","TLE_LINE2":"2 46049  53.0546 306.5627 0002023  49.2883 310.8281 15.06409494132908","INCLINATION":"53.0546","CLASSIFICATION_TYPE":"U","EPOCH":"2022-12-30T16:16:29.276832","RCS_SIZE":"LARGE","MEAN_MOTION":"15.06409494","TIME_SYSTEM":"UTC","ELEMENT_SET_NO":"999","MEAN_ANOMALY":"310.8281","REV_AT_EPOCH":"13290","GP_ID":"221793120","OBJECT_ID":"2020-055Y","ECCENTRICITY":"0.00020230","SEMIMAJOR_AXIS":"6925.319","MEAN_ELEMENT_THEORY":"SGP4"},{"COUNTRY_CODE":"US","SITE":"AFETR","TLE_LINE1":"1 46051U 20055AA  22364.58229231  .00005780  00000-0  40653-3 0  9998","INCLINATION":"53.0552","TLE_LINE2":"2 46051  53.0552 306.9969 0001784  56.2653 303.8506 15.06409496132912","RCS_SIZE":"LARGE","EPOCH":"2022-12-30T13:58:30.055584","CLASSIFICATION_TYPE":"U","TIME_SYSTEM":"UTC","MEAN_MOTION":"15.06409496","ELEMENT_SET_NO":"999","MEAN_ANOMALY":"303.8506","REV_AT_EPOCH":"13291","OBJECT_ID":"2020-055AA","GP_ID":"221793542","MEAN_ELEMENT_THEORY":"SGP4","SEMIMAJOR_AXIS":"6925.319","ECCENTRICITY":"0.00017840","RA_OF_ASC_NODE":"306.9969","OBJECT_NAME":"STARLINK-1540","BSTAR":"0.00040653000000","FILE":"3726972","ARG_OF_PERICENTER":"56.2653","PERIAPSIS":"545.949","DECAY_DATE":null,"EPHEMERIS_TYPE":"0","OBJECT_TYPE":"PAYLOAD","MEAN_MOTION_DOT":"0.00005780","CENTER_NAME":"EARTH","LAUNCH_DATE":"2020-08-07","NORAD_CAT_ID":"46051","PERIOD":"95.592","MEAN_MOTION_DDOT":"0.0000000000000","REF_FRAME":"TEME","APOAPSIS":"548.420"},{"ELEMENT_SET_NO":"999","REV_AT_EPOCH":"13290","MEAN_ANOMALY":"273.6015","OBJECT_ID":"2020-055AB","GP_ID":"221793238","MEAN_ELEMENT_THEORY":"SGP4","SEMIMAJOR_AXIS":"6925.346","ECCENTRICITY":"0.00019390","COUNTRY_CODE":"US","TLE_LINE1":"1 46052U 20055AB  22364.56757135  .00002423  00000-0  18150-3 0  9994","SITE":"AFETR","INCLINATION":"53.0512","TLE_LINE2":"2 46052  53.0512 307.0622 0001939  86.5196 273.6015 15.06400724132900","RCS_SIZE":"LARGE","EPOCH":"2022-12-30T13:37:18.164640","CLASSIFICATION_TYPE":"U","TIME_SYSTEM":"UTC","MEAN_MOTION":"15.06400724","LAUNCH_DATE":"2020-08-07","NORAD_CAT_ID":"46052","PERIOD":"95.592","MEAN_MOTION_DDOT":"0.0000000000000","REF_FRAME":"TEME","APOAPSIS":"548.554","RA_OF_ASC_NODE":"307.0622","OBJECT_NAME":"STARLINK-1541","BSTAR":"0.00018150000000","FILE":"3726965","ARG_OF_PERICENTER":"86.5196","PERIAPSIS":"545.869","DECAY_DATE":null,"EPHEMERIS_TYPE":"0","OBJECT_TYPE":"PAYLOAD","MEAN_MOTION_DOT":"0.00002423","CENTER_NAME":"EARTH"},{"OBJECT_NAME":"STARLINK-1543","BSTAR":"0.00085401000000","RA_OF_ASC_NODE":"307.0528","DECAY_DATE":null,"FILE":"3726966","ARG_OF_PERICENTER":"48.4403","PERIAPSIS":"545.651","EPHEMERIS_TYPE":"0","CENTER_NAME":"EARTH","OBJECT_TYPE":"PAYLOAD","MEAN_MOTION_DOT":"0.00012466","LAUNCH_DATE":"2020-08-07","NORAD_CAT_ID":"46053","MEAN_MOTION_DDOT":"0.0000000000000","PERIOD":"95.591","APOAPSIS":"548.691","REF_FRAME":"TEME","SITE":"AFETR","TLE_LINE1":"1 46053U 20055AC  22364.57123992  .00012466  00000-0  85401-3 0  9995","COUNTRY_CODE":"US","INCLINATION":"53.0542","TLE_LINE2":"2 46053  53.0542 307.0528 0002195  48.4403 311.6774 15.06413811132908","CLASSIFICATION_TYPE":"U","RCS_SIZE":"LARGE","EPOCH":"2022-12-30T13:42:35.129088","MEAN_MOTION":"15.06413811","TIME_SYSTEM":"UTC","ELEMENT_SET_NO":"999","REV_AT_EPOCH":"13290","MEAN_ANOMALY":"311.6774","OBJECT_ID":"2020-055AC","GP_ID":"221793241","SEMIMAJOR_AXIS":"6925.306","ECCENTRICITY":"0.00021950","MEAN_ELEMENT_THEORY":"SGP4"},{"MEAN_ELEMENT_THEORY":"SGP4","SEMIMAJOR_AXIS":"6925.343","ECCENTRICITY":"0.00016190","OBJECT_ID":"2020-055AD","GP_ID":"221793582","REV_AT_EPOCH":"13288","MEAN_ANOMALY":"285.6197","ELEMENT_SET_NO":"999","TIME_SYSTEM":"UTC","MEAN_MOTION":"15.06401699","RCS_SIZE":"LARGE","EPOCH":"2022-12-30T13:53:11.963616","CLASSIFICATION_TYPE":"U","INCLINATION":"53.0559","TLE_LINE2":"2 46054  53.0559 307.0146 0001619  74.4971 285.6197 15.06401699132889","COUNTRY_CODE":"US","TLE_LINE1":"1 46054U 20055AD  22364.57861069  .00001436  00000-0  11526-3 0  9992","SITE":"AFETR","REF_FRAME":"TEME","APOAPSIS":"548.330","PERIOD":"95.592","MEAN_MOTION_DDOT":"0.0000000000000","NORAD_CAT_ID":"46054","LAUNCH_DATE":"2020-08-07","OBJECT_TYPE":"PAYLOAD","MEAN_MOTION_DOT":"0.00001436","CENTER_NAME":"EARTH","EPHEMERIS_TYPE":"0","FILE":"3726967","PERIAPSIS":"546.087","ARG_OF_PERICENTER":"74.4971","DECAY_DATE":null,"RA_OF_ASC_NODE":"307.0146","OBJECT_NAME":"STARLINK-1548","BSTAR":"0.00011526000000"}];
